*******************************************************************************
JPL/HORIZONS              3148 Grechko (1979 SA12)         2023-Sep-04 11:21:59
Rec #:    3148 (+COV) Soln.date: 2023-Aug-23_06:56:23   # obs: 3382 (1964-2023)
 
IAU76/J2000 helio. ecliptic osc. elements (au, days, deg., period=Julian yrs):
 
  EPOCH=  2457600.5 ! 2016-Jul-31.00 (TDB)         Residual RMS= .25697
   EC= .1920726430553008   QR= 2.505302379558887   TP= 2458243.2022559252
   OM= .8408636008165425   W=  43.92552244071789   IN= .7334491751561519
   A= 3.100900542634267    MA= 243.9935484393034   ADIST= 3.696498705709647
   PER= 5.46059            N= .180497969           ANGMOM= .029727807
   DAN= 2.62356            DDN= 3.46598            L= 44.7640404
   B= .5088032             MOID= 1.51306999        TP= 2018-May-04.7022559252
 
Asteroid physical parameters (km, seconds, rotational period in hours):
   GM= n.a.                RAD= 8.5045             ROTPER= 5.983
   H= 12.46                G= .150                 B-V= n.a.
                           ALBEDO= .069            STYP= n.a.

ASTEROID comments: 
1: soln ref.= JPL#48, OCC=0
2: source=ORB
*******************************************************************************


*******************************************************************************
Ephemeris / API_USER Mon Sep  4 11:21:59 2023 Pasadena, USA      / Horizons
*******************************************************************************
Target body name: 3148 Grechko (1979 SA12)        {source: JPL#48}
Center body name: Solar System Barycenter (0)     {source: DE441}
Center-site name: BODY CENTER
*******************************************************************************
Start time      : A.D. 2023-Aug-12 00:00:00.0000 TDB
Stop  time      : A.D. 2023-Aug-13 00:00:00.0000 TDB
Step-size       : 2880 minutes
*******************************************************************************
Center geodetic : 0.0, 0.0, 0.0                   {E-lon(deg),Lat(deg),Alt(km)}
Center cylindric: 0.0, 0.0, 0.0                   {E-lon(deg),Dxy(km),Dz(km)}
Center radii    : (undefined)
Small perturbers: Yes                             {source: SB441-N16}
Output units    : KM-S
Calendar mode   : Mixed Julian/Gregorian
Output type     : GEOMETRIC cartesian states
Output format   : 2 (position and velocity)
Reference frame : Ecliptic of J2000.0
*******************************************************************************
Initial IAU76/J2000 heliocentric ecliptic osculating elements (au, days, deg.):
  EPOCH=  2457600.5 ! 2016-Jul-31.00 (TDB)         Residual RMS= .25697        
   EC= .1920726430553008   QR= 2.505302379558887   TP= 2458243.2022559252      
   OM= .8408636008165425   W=  43.92552244071789   IN= .7334491751561519       
  Equivalent ICRF heliocentric cartesian coordinates (au, au/d):
   X= 6.882483960914154E-02  Y=-3.140181394640876E+00  Z=-1.409467066452488E+00
  VX= 8.605671349147075E-03 VY= 1.420607161061261E-03 VZ= 6.358596012063656E-04
Asteroid physical parameters (km, seconds, rotational period in hours):        
   GM= n.a.                RAD= 8.5045             ROTPER= 5.983               
   H= 12.46                G= .150                 B-V= n.a.                   
                           ALBEDO= .069            STYP= n.a.                  
*******************************************************************************
JDTDB
   X     Y     Z
   VX    VY    VZ
*******************************************************************************
$$SOE
2460168.500000000 = A.D. 2023-Aug-12 00:00:00.0000 TDB 
 X = 3.366872485382816E+08 Y = 1.676900998480218E+08 Z = 2.112939225926310E+06
 VX=-9.972103913367903E+00 VY= 1.781515044440974E+01 VZ= 2.294457051359871E-01
$$EOE
*******************************************************************************
 
TIME

  Barycentric Dynamical Time ("TDB" or T_eph) output was requested. This
continuous coordinate time is equivalent to the relativistic proper time
of a clock at rest in a reference frame co-moving with the solar system
barycenter but outside the system's gravity well. It is the independent
variable in the solar system relativistic equations of motion.

  TDB runs at a uniform rate of one SI second per second and is independent
of irregularities in Earth's rotation.
 
CALENDAR SYSTEM

  Mixed calendar mode was active such that calendar dates after AD 1582-Oct-15
(if any) are in the modern Gregorian system. Dates prior to 1582-Oct-5 (if any)
are in the Julian calendar system, which is automatically extended for dates
prior to its adoption on 45-Jan-1 BC.  The Julian calendar is useful for
matching historical dates. The Gregorian calendar more accurately corresponds
to the Earth's orbital motion and seasons. A "Gregorian-only" calendar mode is
available if such physical events are the primary interest.

REFERENCE FRAME AND COORDINATES

  Ecliptic at the standard reference epoch

    Reference epoch: J2000.0
    X-Y plane: adopted Earth orbital plane at the reference epoch
               Note: IAU76 obliquity of 84381.448 arcseconds wrt ICRF X-Y plane
    X-axis   : ICRF
    Z-axis   : perpendicular to the X-Y plane in the directional (+ or -) sense
               of Earth's north pole at the reference epoch.

  Symbol meaning:

    JDTDB    Julian Day Number, Barycentric Dynamical Time
      X      X-component of position vector (km)
      Y      Y-component of position vector (km)
      Z      Z-component of position vector (km)
      VX     X-component of velocity vector (km/sec)                           
      VY     Y-component of velocity vector (km/sec)                           
      VZ     Z-component of velocity vector (km/sec)                           

ABERRATIONS AND CORRECTIONS

 Geometric state vectors have NO corrections or aberrations applied.

Computations by ...

    Solar System Dynamics Group, Horizons On-Line Ephemeris System
    4800 Oak Grove Drive, Jet Propulsion Laboratory
    Pasadena, CA  91109   USA

    General site: https://ssd.jpl.nasa.gov/
    Mailing list: https://ssd.jpl.nasa.gov/email_list.html
    System news : https://ssd.jpl.nasa.gov/horizons/news.html
    User Guide  : https://ssd.jpl.nasa.gov/horizons/manual.html
    Connect     : browser        https://ssd.jpl.nasa.gov/horizons/app.html#/x
                  API            https://ssd-api.jpl.nasa.gov/doc/horizons.html
                  command-line   telnet ssd.jpl.nasa.gov 6775
                  e-mail/batch   https://ssd.jpl.nasa.gov/ftp/ssd/hrzn_batch.txt
                  scripts        https://ssd.jpl.nasa.gov/ftp/ssd/SCRIPTS
    Author      : Jon.D.Giorgini@jpl.nasa.gov
*******************************************************************************
